[{"OBJECT_NAME":"STARLINK-34821","OBJECT_ID":"2025-176B","EPOCH":"2026-03-09T12:09:27.470016","MEAN_MOTION":15.30192398,"ECCENTRICITY":0.00010937,"INCLINATION":53.159,"RA_OF_ASC_NODE":153.4898,"ARG_OF_PERICENTER":99.2619,"MEAN_ANOMALY":260.8506,"EPHEMERIS_TYPE":0,"CLASSIFICATION_TYPE":"U","NORAD_CAT_ID":65199,"ELEMENT_SET_NO":999,"REV_AT_EPOCH":3303,"BSTAR":0.00088866076,"MEAN_MOTION_DOT":0.00026046,"MEAN_MOTION_DDOT":0},{"OBJECT_NAME":"TRANSPORTER-1 OBJECT AA","OBJECT_ID":"2021-006AA","EPOCH":"2026-03-09T22:58:14.761920","MEAN_MOTION":15.29982294,"ECCENTRICITY":0.00086604,"INCLINATION":97.2381,"RA_OF_ASC_NODE":112.457,"ARG_OF_PERICENTER":185.709,"MEAN_ANOMALY":174.4054,"EPHEMERIS_TYPE":0,"CLASSIFICATION_TYPE":"U","NORAD_CAT_ID":47437,"ELEMENT_SET_NO":999,"REV_AT_EPOCH":28414,"BSTAR":0.0002197941,"MEAN_MOTION_DOT":6.312e-5,"MEAN_MOTION_DDOT":0}]
